IRIDIUM 63              
1 25286U 98021B   25157.80083204  .00000373  00000+0  12035-3 0  9994
2 25286  86.3975  86.4893 0002150  81.5867 278.5573 14.36539562422351
IRIDIUM 69              
1 25319U 98026A   25157.77587691  .00000528  00000+0  15827-3 0  9995
2 25319  86.3965  99.8225 0004547  71.6620 288.5074 14.40959726421565
IRIDIUM 71              
1 25320U 98026B   25157.57577748  .00000374  00000+0  10994-3 0  9996
2 25320  86.3965  94.5989 0004218 102.8030 257.3641 14.41150821422063
IRIDIUM 73              
1 25344U 98032C   25157.65366678  .00000499  00000+0  11910-3 0  9993
2 25344  86.4422  51.2909 0002715  73.8181 286.3324 14.51705945429032
IRIDIUM 82              
1 25467U 98051A   25157.77333413  .00022565  00000+0  65391-3 0  9994
2 25467  86.3656 114.8571 0084040 338.4559  21.3160 15.31886151422369
